[
  {
    "COMMENT": "GENERATED VIA SPACETRACK.ORG API",
    "ORIGINATOR": "18 SPCS",
    "NORAD_CAT_ID": "46984",
    "OBJECT_NAME": "S6 MICHAEL FREILICH",
    "OBJECT_TYPE": "PAYLOAD",
    "CLASSIFICATION_TYPE": "U",
    "INTLDES": "20086A",
    "EPOCH": "2021-11-24 02:25:45",
    "EPOCH_MICROSECONDS": "645600",
    "MEAN_MOTION": "12.80930707",
    "ECCENTRICITY": "0.0007832",
    "INCLINATION": "66.0445",
    "RA_OF_ASC_NODE": "355.5527",
    "ARG_OF_PERICENTER": "262.8746",
    "MEAN_ANOMALY": "97.1386",
    "EPHEMERIS_TYPE": "0",
    "ELEMENT_SET_NO": "999",
    "REV_AT_EPOCH": "4706",
    "BSTAR": "0",
    "MEAN_MOTION_DOT": "-0.00000061",
    "MEAN_MOTION_DDOT": "0",
    "FILE": "3223028",
    "TLE_LINE0": "0 S6 MICHAEL FREILICH",
    "TLE_LINE1": "1 46984U 20086A   21328.10122275 -.00000061  00000-0  00000+0 0  9990",
    "TLE_LINE2": "2 46984  66.0445 355.5527 0007832 262.8746  97.1386 12.80930707 47063",
    "OBJECT_ID": "2020-086A",
    "OBJECT_NUMBER": "46984",
    "SEMIMAJOR_AXIS": "7715.867",
    "PERIOD": "112.418",
    "APOGEE": "1343.775",
    "PERIGEE": "1331.689",
    "DECAYED": "0"
  },
  {
    "COMMENT": "GENERATED VIA SPACETRACK.ORG API",
    "ORIGINATOR": "18 SPCS",
    "NORAD_CAT_ID": "46984",
    "OBJECT_NAME": "S6 MICHAEL FREILICH",
    "OBJECT_TYPE": "PAYLOAD",
    "CLASSIFICATION_TYPE": "U",
    "INTLDES": "20086A",
    "EPOCH": "2021-11-24 02:25:45",
    "EPOCH_MICROSECONDS": "645600",
    "MEAN_MOTION": "12.80930707",
    "ECCENTRICITY": "0.0007832",
    "INCLINATION": "66.0445",
    "RA_OF_ASC_NODE": "355.5527",
    "ARG_OF_PERICENTER": "262.8746",
    "MEAN_ANOMALY": "97.1386",
    "EPHEMERIS_TYPE": "0",
    "ELEMENT_SET_NO": "999",
    "REV_AT_EPOCH": "4706",
    "BSTAR": "0",
    "MEAN_MOTION_DOT": "-0.00000061",
    "MEAN_MOTION_DDOT": "0",
    "FILE": "3223027",
    "TLE_LINE0": "0 S6 MICHAEL FREILICH",
    "TLE_LINE1": "1 46984U 20086A   21328.10122275 -.00000061  00000-0  00000+0 0  9990",
    "TLE_LINE2": "2 46984  66.0445 355.5527 0007832 262.8746  97.1386 12.80930707 47063",
    "OBJECT_ID": "2020-086A",
    "OBJECT_NUMBER": "46984",
    "SEMIMAJOR_AXIS": "7715.867",
    "PERIOD": "112.418",
    "APOGEE": "1343.775",
    "PERIGEE": "1331.689",
    "DECAYED": "0"
  },
  {
    "COMMENT": "GENERATED VIA SPACETRACK.ORG API",
    "ORIGINATOR": "18 SPCS",
    "NORAD_CAT_ID": "46984",
    "OBJECT_NAME": "S6 MICHAEL FREILICH",
    "OBJECT_TYPE": "PAYLOAD",
    "CLASSIFICATION_TYPE": "U",
    "INTLDES": "20086A",
    "EPOCH": "2021-11-25 02:47:20",
    "EPOCH_MICROSECONDS": "487840",
    "MEAN_MOTION": "12.80930718",
    "ECCENTRICITY": "0.0007821",
    "INCLINATION": "66.0447",
    "RA_OF_ASC_NODE": "353.4451",
    "ARG_OF_PERICENTER": "262.9505",
    "MEAN_ANOMALY": "97.0618",
    "EPHEMERIS_TYPE": "0",
    "ELEMENT_SET_NO": "999",
    "REV_AT_EPOCH": "4719",
    "BSTAR": "0",
    "MEAN_MOTION_DOT": "-0.00000061",
    "MEAN_MOTION_DDOT": "0",
    "FILE": "3223490",
    "TLE_LINE0": "0 S6 MICHAEL FREILICH",
    "TLE_LINE1": "1 46984U 20086A   21329.11620935 -.00000061  00000-0  00000+0 0  9998",
    "TLE_LINE2": "2 46984  66.0447 353.4451 0007821 262.9505  97.0618 12.80930718 47193",
    "OBJECT_ID": "2020-086A",
    "OBJECT_NUMBER": "46984",
    "SEMIMAJOR_AXIS": "7715.867",
    "PERIOD": "112.418",
    "APOGEE": "1343.767",
    "PERIGEE": "1331.698",
    "DECAYED": "0"
  },
  {
    "COMMENT": "GENERATED VIA SPACETRACK.ORG API",
    "ORIGINATOR": "18 SPCS",
    "NORAD_CAT_ID": "46984",
    "OBJECT_NAME": "S6 MICHAEL FREILICH",
    "OBJECT_TYPE": "PAYLOAD",
    "CLASSIFICATION_TYPE": "U",
    "INTLDES": "20086A",
    "EPOCH": "2021-11-25 08:24:37",
    "EPOCH_MICROSECONDS": "766304",
    "MEAN_MOTION": "12.80930709",
    "ECCENTRICITY": "0.0007819",
    "INCLINATION": "66.0447",
    "RA_OF_ASC_NODE": "352.9585",
    "ARG_OF_PERICENTER": "263.1814",
    "MEAN_ANOMALY": "96.8311",
    "EPHEMERIS_TYPE": "0",
    "ELEMENT_SET_NO": "999",
    "REV_AT_EPOCH": "4722",
    "BSTAR": "0",
    "MEAN_MOTION_DOT": "-0.00000061",
    "MEAN_MOTION_DDOT": "0",
    "FILE": "3223911",
    "TLE_LINE0": "0 S6 MICHAEL FREILICH",
    "TLE_LINE1": "1 46984U 20086A   21329.35043711 -.00000061  00000-0  00000-0 0  9996",
    "TLE_LINE2": "2 46984  66.0447 352.9585 0007819 263.1814  96.8311 12.80930709 47229",
    "OBJECT_ID": "2020-086A",
    "OBJECT_NUMBER": "46984",
    "SEMIMAJOR_AXIS": "7715.867",
    "PERIOD": "112.418",
    "APOGEE": "1343.765",
    "PERIGEE": "1331.699",
    "DECAYED": "0"
  },
  {
    "COMMENT": "GENERATED VIA SPACETRACK.ORG API",
    "ORIGINATOR": "18 SPCS",
    "NORAD_CAT_ID": "46984",
    "OBJECT_NAME": "S6 MICHAEL FREILICH",
    "OBJECT_TYPE": "PAYLOAD",
    "CLASSIFICATION_TYPE": "U",
    "INTLDES": "20086A",
    "EPOCH": "2021-11-25 12:09:29",
    "EPOCH_MICROSECONDS": "286144",
    "MEAN_MOTION": "12.80930711",
    "ECCENTRICITY": "0.0007816",
    "INCLINATION": "66.0446",
    "RA_OF_ASC_NODE": "352.6343",
    "ARG_OF_PERICENTER": "263.2129",
    "MEAN_ANOMALY": "96.7997",
    "EPHEMERIS_TYPE": "0",
    "ELEMENT_SET_NO": "999",
    "REV_AT_EPOCH": "4724",
    "BSTAR": "0",
    "MEAN_MOTION_DOT": "-0.00000061",
    "MEAN_MOTION_DDOT": "0",
    "FILE": "3223916",
    "TLE_LINE0": "0 S6 MICHAEL FREILICH",
    "TLE_LINE1": "1 46984U 20086A   21329.50658896 -.00000061  00000-0  00000+0 0  9998",
    "TLE_LINE2": "2 46984  66.0446 352.6343 0007816 263.2129  96.7997 12.80930711 47248",
    "OBJECT_ID": "2020-086A",
    "OBJECT_NUMBER": "46984",
    "SEMIMAJOR_AXIS": "7715.867",
    "PERIOD": "112.418",
    "APOGEE": "1343.763",
    "PERIGEE": "1331.702",
    "DECAYED": "0"
  },
  {
    "COMMENT": "GENERATED VIA SPACETRACK.ORG API",
    "ORIGINATOR": "18 SPCS",
    "NORAD_CAT_ID": "46984",
    "OBJECT_NAME": "S6 MICHAEL FREILICH",
    "OBJECT_TYPE": "PAYLOAD",
    "CLASSIFICATION_TYPE": "U",
    "INTLDES": "20086A",
    "EPOCH": "2021-11-25 12:09:29",
    "EPOCH_MICROSECONDS": "286144",
    "MEAN_MOTION": "12.80930711",
    "ECCENTRICITY": "0.0007816",
    "INCLINATION": "66.0446",
    "RA_OF_ASC_NODE": "352.6343",
    "ARG_OF_PERICENTER": "263.2129",
    "MEAN_ANOMALY": "96.7997",
    "EPHEMERIS_TYPE": "0",
    "ELEMENT_SET_NO": "999",
    "REV_AT_EPOCH": "4724",
    "BSTAR": "0",
    "MEAN_MOTION_DOT": "-0.00000061",
    "MEAN_MOTION_DDOT": "0",
    "FILE": "3223915",
    "TLE_LINE0": "0 S6 MICHAEL FREILICH",
    "TLE_LINE1": "1 46984U 20086A   21329.50658896 -.00000061  00000-0  00000+0 0  9998",
    "TLE_LINE2": "2 46984  66.0446 352.6343 0007816 263.2129  96.7997 12.80930711 47248",
    "OBJECT_ID": "2020-086A",
    "OBJECT_NUMBER": "46984",
    "SEMIMAJOR_AXIS": "7715.867",
    "PERIOD": "112.418",
    "APOGEE": "1343.763",
    "PERIGEE": "1331.702",
    "DECAYED": "0"
  },
  {
    "COMMENT": "GENERATED VIA SPACETRACK.ORG API",
    "ORIGINATOR": "18 SPCS",
    "NORAD_CAT_ID": "46984",
    "OBJECT_NAME": "S6 MICHAEL FREILICH",
    "OBJECT_TYPE": "PAYLOAD",
    "CLASSIFICATION_TYPE": "U",
    "INTLDES": "20086A",
    "EPOCH": "2021-11-26 08:46:12",
    "EPOCH_MICROSECONDS": "612864",
    "MEAN_MOTION": "12.80930659",
    "ECCENTRICITY": "0.0007841",
    "INCLINATION": "66.0441",
    "RA_OF_ASC_NODE": "350.8499",
    "ARG_OF_PERICENTER": "263.0504",
    "MEAN_ANOMALY": "96.9609",
    "EPHEMERIS_TYPE": "0",
    "ELEMENT_SET_NO": "999",
    "REV_AT_EPOCH": "4735",
    "BSTAR": "0",
    "MEAN_MOTION_DOT": "-0.00000061",
    "MEAN_MOTION_DDOT": "0",
    "FILE": "3224704",
    "TLE_LINE0": "0 S6 MICHAEL FREILICH",
    "TLE_LINE1": "1 46984U 20086A   21330.36542376 -.00000061  00000-0  00000-0 0  9990",
    "TLE_LINE2": "2 46984  66.0441 350.8499 0007841 263.0504  96.9609 12.80930659 47353",
    "OBJECT_ID": "2020-086A",
    "OBJECT_NUMBER": "46984",
    "SEMIMAJOR_AXIS": "7715.867",
    "PERIOD": "112.418",
    "APOGEE": "1343.783",
    "PERIGEE": "1331.682",
    "DECAYED": "0"
  },
  {
    "COMMENT": "GENERATED VIA SPACETRACK.ORG API",
    "ORIGINATOR": "18 SPCS",
    "NORAD_CAT_ID": "46984",
    "OBJECT_NAME": "S6 MICHAEL FREILICH",
    "OBJECT_TYPE": "PAYLOAD",
    "CLASSIFICATION_TYPE": "U",
    "INTLDES": "20086A",
    "EPOCH": "2021-11-26 10:38:38",
    "EPOCH_MICROSECONDS": "391360",
    "MEAN_MOTION": "12.8093065",
    "ECCENTRICITY": "0.0007862",
    "INCLINATION": "66.0437",
    "RA_OF_ASC_NODE": "350.6872",
    "ARG_OF_PERICENTER": "262.925",
    "MEAN_ANOMALY": "97.0877",
    "EPHEMERIS_TYPE": "0",
    "ELEMENT_SET_NO": "999",
    "REV_AT_EPOCH": "4736",
    "BSTAR": "0",
    "MEAN_MOTION_DOT": "-0.00000061",
    "MEAN_MOTION_DDOT": "0",
    "FILE": "3224720",
    "TLE_LINE0": "0 S6 MICHAEL FREILICH",
    "TLE_LINE1": "1 46984U 20086A   21330.44349990 -.00000061  00000-0  00000+0 0  9995",
    "TLE_LINE2": "2 46984  66.0437 350.6872 0007862 262.9250  97.0877 12.80930650 47361",
    "OBJECT_ID": "2020-086A",
    "OBJECT_NUMBER": "46984",
    "SEMIMAJOR_AXIS": "7715.868",
    "PERIOD": "112.418",
    "APOGEE": "1343.799",
    "PERIGEE": "1331.666",
    "DECAYED": "0"
  }
]